$$SOE
2460728.500000000, A.D. 2025-Feb-22 00:00:00.0000, -2.585519363338985E+08, -3.012335360389896E+08, 1.293165925264216E+08,
2460735.500000000, A.D. 2025-Mar-01 00:00:00.0000, -2.504748930241837E+08, -3.087630968716958E+08, 1.291826498495075E+08,
2460742.500000000, A.D. 2025-Mar-08 00:00:00.0000, -2.422314119774179E+08, -3.160875648178386E+08, 1.289628701132341E+08,
2460749.500000000, A.D. 2025-Mar-15 00:00:00.0000, -2.338275973802753E+08, -3.232028945783457E+08, 1.286577349224326E+08,
2460756.500000000, A.D. 2025-Mar-22 00:00:00.0000, -2.252696279531291E+08, -3.301052294166190E+08, 1.282677870915941E+08,
2460763.500000000, A.D. 2025-Mar-29 00:00:00.0000, -2.165637506952561E+08, -3.367909038991532E+08, 1.277936291410834E+08,
2460770.500000000, A.D. 2025-Apr-05 00:00:00.0000, -2.077162730158875E+08, -3.432564454581773E+08, 1.272359216627443E+08,
2460777.500000000, A.D. 2025-Apr-12 00:00:00.0000, -1.987335551912882E+08, -3.494985746804199E+08, 1.265953817453481E+08,
2460784.500000000, A.D. 2025-Apr-19 00:00:00.0000, -1.896220033479906E+08, -3.555142052111560E+08, 1.258727814094656E+08,
2460791.500000000, A.D. 2025-Apr-26 00:00:00.0000, -1.803880627121848E+08, -3.613004434845825E+08, 1.250689460140499E+08,
2460798.500000000, A.D. 2025-May-03 00:00:00.0000, -1.710382110218662E+08, -3.668545882698147E+08, 1.241847526292534E+08,
2460805.500000000, A.D. 2025-May-10 00:00:00.0000, -1.615789520819827E+08, -3.721741300330058E+08, 1.232211283768288E+08,
2460812.500000000, A.D. 2025-May-17 00:00:00.0000, -1.520168094332986E+08, -3.772567501668522E+08, 1.221790487348903E+08,
2460819.500000000, A.D. 2025-May-24 00:00:00.0000, -1.423583199676856E+08, -3.821003201535822E+08, 1.210595357908106E+08,
2460826.500000000, A.D. 2025-May-31 00:00:00.0000, -1.326100270787230E+08, -3.867029003630676E+08, 1.198636564342529E+08,
2460833.500000000, A.D. 2025-Jun-07 00:00:00.0000, -1.227784737554241E+08, -3.910627372936249E+08, 1.185925206305104E+08,
2460840.500000000, A.D. 2025-Jun-14 00:00:00.0000, -1.128701979896706E+08, -3.951782599334813E+08, 1.172472799405994E+08,
2460847.500000000, A.D. 2025-Jun-21 00:00:00.0000, -1.028917292848442E+08, -3.990480785254461E+08, 1.158291259127499E+08,
2460854.500000000, A.D. 2025-Jun-28 00:00:00.0000, -9.284958314104865E+07, -4.026709839826122E+08, 1.143392882067508E+08,
2460861.500000000, A.D. 2025-Jul-05 00:00:00.0000, -8.275025503717479E+07, -4.060459458109048E+08, 1.127790327706870E+08,
2460868.500000000, A.D. 2025-Jul-12 00:00:00.0000, -7.260021510364938E+07, -4.091721093551596E+08, 1.111496601170777E+08,
2460875.500000000, A.D. 2025-Jul-19 00:00:00.0000, -6.240590329836039E+07, -4.120487929547080E+08, 1.094525036371375E+08,
2460882.500000000, A.D. 2025-Jul-26 00:00:00.0000, -5.217372487710379E+07, -4.146754850756480E+08, 1.076889279319801E+08,
2460889.500000000, A.D. 2025-Aug-02 00:00:00.0000, -4.191004609350251E+07, -4.170518414086453E+08, 1.058603271589959E+08,
2460896.500000000, A.D. 2025-Aug-09 00:00:00.0000, -3.162119010457210E+07, -4.191776819575099E+08, 1.039681233925835E+08,
2460903.500000000, A.D. 2025-Aug-16 00:00:00.0000, -2.131343300426320E+07, -4.210529881924062E+08, 1.020137649896452E+08,
2460910.500000000, A.D. 2025-Aug-23 00:00:00.0000, -1.099299969144415E+07, -4.226779002615328E+08, 9.999872493686232E+07,
2460917.500000000, A.D. 2025-Aug-30 00:00:00.0000, -6.660592421849694E+05, -4.240527135570481E+08, 9.792449921013106E+07,
2460924.500000000, A.D. 2025-Sep-06 00:00:00.0000, 9.661278797094723E+06, -4.251778736438865E+08, 9.579260535968450E+07,
2460931.500000000, A.D. 2025-Sep-13 00:00:00.0000, 1.998296552735703E+07, -4.260539720420304E+08, 9.360458127231953E+07,
2460938.500000000, A.D. 2025-Sep-20 00:00:00.0000, 3.029301450258913E+07, -4.266817445146471E+08, 9.136198367731833E+07,
2460945.500000000, A.D. 2025-Sep-27 00:00:00.0000, 4.058550528576183E+07, -4.270620687596728E+08, 8.906638655505824E+07,
2460952.500000000, A.D. 2025-Oct-04 00:00:00.0000, 5.085458674178959E+07, -4.271959609742545E+08, 8.671937967895371E+07,
2460959.500000000, A.D. 2025-Oct-11 00:00:00.0000, 6.109447969735511E+07, -4.270845722426021E+08, 8.432256724901244E+07,
2460966.500000000, A.D. 2025-Oct-18 00:00:00.0000, 7.129947925506586E+07, -4.267291850285291E+08, 8.187756656928033E+07,
2460973.500000000, A.D. 2025-Oct-25 00:00:00.0000, 8.146395690550034E+07, -4.261312097678721E+08, 7.938600675766316E+07,
2460980.500000000, A.D. 2025-Nov-01 00:00:00.0000, 9.158236248101938E+07, -4.252921815508370E+08, 7.684952748586750E+07,
2460987.500000000, A.D. 2025-Nov-08 00:00:00.0000, 1.016492259909302E+08, -4.242137569309508E+08, 7.426977774375978E+07,
2460994.500000000, A.D. 2025-Nov-15 00:00:00.0000, 1.116591594912476E+08, -4.228977109246818E+08, 7.164841461001736E+07,
2461001.500000000, A.D. 2025-Nov-22 00:00:00.0000, 1.216068593969409E+08, -4.213459339873901E+08, 6.898710201045504E+07,
2461008.500000000, A.D. 2025-Nov-29 00:00:00.0000, 1.314871090881979E+08, -4.195604278361602E+08, 6.628750957099783E+07,
2461015.500000000, A.D. 2025-Dec-06 00:00:00.0000, 1.412947795376033E+08, -4.175433002599149E+08, 6.355131176274867E+07,
2461022.500000000, A.D. 2025-Dec-13 00:00:00.0000, 1.510248283966602E+08, -4.152967622900344E+08, 6.078018702316536E+07,
2461029.500000000, A.D. 2025-Dec-20 00:00:00.0000, 1.606723010406431E+08, -4.128231267116752E+08, 5.797581661611183E+07,
2461036.500000000, A.D. 2025-Dec-27 00:00:00.0000, 1.702323325034758E+08, -4.101248053289350E+08, 5.513988354101159E+07,
2461043.500000000, A.D. 2026-Jan-03 00:00:00.0000, 1.797001488477742E+08, -4.072043056031342E+08, 5.227407157436420E+07,
2461050.500000000, A.D. 2026-Jan-10 00:00:00.0000, 1.890710680834874E+08, -4.040642273452665E+08, 4.938006437736468E+07,
2461057.500000000, A.D. 2026-Jan-17 00:00:00.0000, 1.983405008712289E+08, -4.007072595547717E+08, 4.645954463977139E+07,
2461064.500000000, A.D. 2026-Jan-24 00:00:00.0000, 2.075039510923205E+08, -3.971361773812785E+08, 4.351419325356066E+07,
2461071.500000000, A.D. 2026-Jan-31 00:00:00.0000, 2.165570163142643E+08, -3.933538392155797E+08, 4.054568851261550E+07,
2461078.500000000, A.D. 2026-Feb-07 00:00:00.0000, 2.254953882197215E+08, -3.893631839668227E+08, 3.755570532760203E+07,
2461085.500000000, A.D. 2026-Feb-14 00:00:00.0000, 2.343148532591767E+08, -3.851672285426098E+08, 3.454591443158659E+07,
2461092.500000000, A.D. 2026-Feb-21 00:00:00.0000, 2.430112939211854E+08, -3.807690649581077E+08, 3.151798158824652E+07,
2461099.500000000, A.D. 2026-Feb-28 00:00:00.0000, 2.515806895398940E+08, -3.761718559241143E+08, 2.847356699633098E+07,
2461106.500000000, A.D. 2026-Mar-07 00:00:00.0000, 2.600191145840737E+08, -3.713788308656396E+08, 2.541432491898033E+07,
2461113.500000000, A.D. 2026-Mar-14 00:00:00.0000, 2.683227372061943E+08, -3.663932847029465E+08, 2.234190309140906E+07,
2461120.500000000, A.D. 2026-Mar-21 00:00:00.0000, 2.764878198386692E+08, -3.612185764964864E+08, 1.925794197926196E+07,
2461127.500000000, A.D. 2026-Mar-28 00:00:00.0000, 2.845107198323796E+08, -3.558581269274380E+08, 1.616407415527588E+07,
2461134.500000000, A.D. 2026-Apr-04 00:00:00.0000, 2.923878895377578E+08, -3.503154155797378E+08, 1.306192376995717E+07,
2461141.500000000, A.D. 2026-Apr-11 00:00:00.0000, 3.001158761061740E+08, -3.445939783834387E+08, 9.953106060978413E+06,
2461148.500000000, A.D. 2026-Apr-18 00:00:00.0000, 3.076913211747290E+08, -3.386974052258769E+08, 6.839226885399446E+06,
2461155.500000000, A.D. 2026-Apr-25 00:00:00.0000, 3.151109604839566E+08, -3.326293377156641E+08, 3.721882270972744E+06,
2461162.500000000, A.D. 2026-May-02 00:00:00.0000, 3.223716234624761E+08, -3.263934671284912E+08, 6.026579805037826E+05,
2461169.500000000, A.D. 2026-May-09 00:00:00.0000, 3.294702329064587E+08, -3.199935325996861E+08, -2.516870928399280E+06,
2461176.500000000, A.D. 2026-May-16 00:00:00.0000, 3.364038051357696E+08, -3.134333194236742E+08, -5.635140572296843E+06,
2461183.500000000, A.D. 2026-May-23 00:00:00.0000, 3.431694506832436E+08, -3.067166564374763E+08, -8.750598661461934E+06,
2461190.500000000, A.D. 2026-May-30 00:00:00.0000, 3.497643734425039E+08, -2.998474121692819E+08, -1.186170465402146E+07,
2461197.500000000, A.D. 2026-Jun-06 00:00:00.0000, 3.561858679588780E+08, -2.928294930250992E+08, -1.496692988417038E+07,
2461204.500000000, A.D. 2026-Jun-13 00:00:00.0000, 3.624313185311067E+08, -2.856668433121805E+08, -1.806475798554595E+07,
2461211.500000000, A.D. 2026-Jun-20 00:00:00.0000, 3.684981996259394E+08, -2.783634441713065E+08, -2.115368532569501E+07,
2461218.500000000, A.D. 2026-Jun-27 00:00:00.0000, 3.743840759104876E+08, -2.709233117569226E+08, -2.423222132468134E+07,
2461225.500000000, A.D. 2026-Jul-04 00:00:00.0000, 3.800866019049448E+08, -2.633504954390678E+08, -2.729888872226386E+07,
2461232.500000000, A.D. 2026-Jul-11 00:00:00.0000, 3.856035215120907E+08, -2.556490761578454E+08, -3.035222382885410E+07,
2461239.500000000, A.D. 2026-Jul-18 00:00:00.0000, 3.909326675187106E+08, -2.478231649035240E+08, -3.339077676779668E+07,
2461246.500000000, A.D. 2026-Jul-25 00:00:00.0000, 3.960719610955651E+08, -2.398769013184688E+08, -3.641311171211839E+07,
2461253.500000000, A.D. 2026-Aug-01 00:00:00.0000, 4.010194113456515E+08, -2.318144524678954E+08, -3.941780712517217E+07,
2461260.500000000, A.D. 2026-Aug-08 00:00:00.0000, 4.057731151166648E+08, -2.236400118136067E+08, -4.240345602877043E+07,
2461267.500000000, A.D. 2026-Aug-15 00:00:00.0000, 4.103312574941274E+08, -2.153577979379162E+08, -4.536866630085944E+07,
2461274.500000000, A.D. 2026-Aug-22 00:00:00.0000, 4.146921122169653E+08, -2.069720517948191E+08, -4.831206083391805E+07,
2461281.500000000, A.D. 2026-Aug-29 00:00:00.0000, 4.188540397288088E+08, -1.984870338610184E+08, -5.123227745719066E+07,
2461288.500000000, A.D. 2026-Sep-05 00:00:00.0000, 4.228154849984738E+08, -1.899070240538847E+08, -5.412796905349898E+07,
2461295.500000000, A.D. 2026-Sep-12 00:00:00.0000, 4.265749775641623E+08, -1.812363219179761E+08, -5.699780389223658E+07,
$$EOE